0 DELTA 1 DEB
1 08954U 75004AL  13281.50487277  .00000835  00000-0  29186-3 0  1848
2 08954 097.6809 113.0812 0144308 114.1799 299.9582 14.31645345945755
0 DELTA 1 DEB
1 08954U 75004AL  13283.52535539  .00000896  00000-0  31200-3 0  1855
2 08954 097.6806 114.8712 0144319 108.1242 273.3382 14.31653509946046
0 DELTA 1 DEB
1 08954U 75004AL  13286.12559527  .00000875  00000-0  30522-3 0  1861
2 08954 097.6801 117.1746 0144349 100.3259 354.7999 14.31658203946414
0 DELTA 1 DEB
1 08954U 75004AL  13288.15102937  .00001384  00000-0  47540-3 0  1870
2 08954 097.6799 118.9687 0144338 094.2730 353.7650 14.31664291946705
0 DELTA 1 DEB
1 08954U 75004AL  13290.52067584  .00001123  00000-0  38815-3 0  1889
2 08954 097.6799 121.0677 0144302 087.1751 326.8549 14.31670488947045
0 DELTA 1 DEB
1 08954U 75004AL  13292.55017067  .00001124  00000-0  38837-3 0  1891
2 08954 097.6800 122.8653 0144282 081.0799 346.8697 14.31674517947338
0 DELTA 1 DEB
1 08954U 75004AL  13294.78598531  .00001219  00000-0  41999-3 0  1908
2 08954 097.6800 124.8459 0144207 074.3878 350.2705 14.31679885947651
